ONEWEB-0380             
1 49306U 21090AD  24259.89793188  .00000024  00000+0  27639-4 0  9995
2 49306  87.9098  72.1311 0001740  90.2014 269.9318 13.19723532142100
ONEWEB-0381             
1 49307U 21090AE  24259.84677823 -.00000012  00000+0 -61736-4 0  9993
2 49307  87.9236  41.6063 0001841  91.3878 268.7466 13.20770065145437
ONEWEB-0382             
1 49308U 21090AF  24259.90991183  .00000054  00000+0  10132-3 0  9996
2 49308  87.9235  41.5900 0001386  88.9691 271.1601 13.20768854145437
ONEWEB-0383             
1 49309U 21090AG  24259.94660491 -.00000022  00000+0 -93426-4 0  9991
2 49309  87.8943  56.8137 0001451  93.8439 266.2856 13.14502786143610
ONEWEB-0384             
1 49310U 21090AH  24259.90673358  .00000060  00000+0  11623-3 0  9993
2 49310  87.9235  41.6034 0001296  85.7860 274.3421 13.20773360145446
ONEWEB-0386             
1 49312U 21090AK  24259.91938030 -.00000023  00000+0 -87618-4 0  9996
2 49312  87.9230  41.5908 0001512  88.3358 271.7949 13.20770650145438
